{
  "type": "FeatureCollection",
  "generator": "overpass-turbo",
  "copyright": "The data included in this document is from www.openstreetmap.org. The data is made available under ODbL.",
  "timestamp": "2026-03-04T19:30:12Z",
  "features": [
    {
      "type": "Feature",
      "properties": {
        "@id": "node/566723864",
        "amenity": "fuel",
        "name": "Star"
      },
      "geometry": {
        "type": "Point",
        "coordinates": [
          -7.9757077,
          12.6547626
        ]
      },
      "id": "node/566723864"
    },
    {
      "type": "Feature",
      "properties": {
        "@id": "node/577253931",
        "amenity": "fuel"
      },
      "geometry": {
        "type": "Point",
        "coordinates": [
          -8.0341005,
          12.6387216
        ]
      },
      "id": "node/577253931"
    },
    {
      "type": "Feature",
      "properties": {
        "@id": "node/585245054",
        "amenity": "fuel",
        "brand": "Total"
      },
      "geometry": {
        "type": "Point",
        "coordinates": [
          -7.9882853,
          12.6585823
        ]
      },
      "id": "node/585245054"
    },
    {
      "type": "Feature",
      "properties": {
        "@id": "node/618513490",
        "amenity": "fuel",
        "name": "TOTAL"
      },
      "geometry": {
        "type": "Point",
        "coordinates": [
          -7.9670769,
          12.6579426
        ]
      },
      "id": "node/618513490"
    },
    {
      "type": "Feature",
      "properties": {
        "@id": "node/1067978651",
        "amenity": "fuel",
        "brand": "SNF",
        "name": "ORIX",
        "survey:date": "2022-04-16"
      },
      "geometry": {
        "type": "Point",
        "coordinates": [
          -7.9726293,
          12.661053
        ]
      },
      "id": "node/1067978651"
    },
    {
      "type": "Feature",
      "properties": {
        "@id": "node/1083653910",
        "amenity": "fuel"
      },
      "geometry": {
        "type": "Point",
        "coordinates": [
          -7.9241491,
          12.675288
        ]
      },
      "id": "node/1083653910"
    },
    {
      "type": "Feature",
      "properties": {
        "@id": "node/1083653913",
        "amenity": "fuel",
        "name": "Triangle"
      },
      "geometry": {
        "type": "Point",
        "coordinates": [
          -7.9243179,
          12.6739849
        ]
      },
      "id": "node/1083653913"
    },
    {
      "type": "Feature",
      "properties": {
        "@id": "node/1083653916",
        "amenity": "fuel"
      },
      "geometry": {
        "type": "Point",
        "coordinates": [
          -7.9427587,
          12.6709175
        ]
      },
      "id": "node/1083653916"
    },
    {
      "type": "Feature",
      "properties": {
        "@id": "node/1085474155",
        "amenity": "fuel",
        "brand": "Shell"
      },
      "geometry": {
        "type": "Point",
        "coordinates": [
          -7.9476899,
          12.6630918
        ]
      },
      "id": "node/1085474155"
    },
    {
      "type": "Feature",
      "properties": {
        "@id": "node/1086034868",
        "amenity": "fuel",
        "brand": "Total",
        "brand:wikidata": "Q154037",
        "brand:wikipedia": "fr:Total (entreprise)",
        "name": "Total",
        "operator": "TOTAL"
      },
      "geometry": {
        "type": "Point",
        "coordinates": [
          -8.0232415,
          12.5839763
        ]
      },
      "id": "node/1086034868"
    },
    {
      "type": "Feature",
      "properties": {
        "@id": "node/1118738339",
        "amenity": "fuel",
        "brand": "star",
        "fuel:diesel": "yes"
      },
      "geometry": {
        "type": "Point",
        "coordinates": [
          -7.9466596,
          12.6631209
        ]
      },
      "id": "node/1118738339"
    },
    {
      "type": "Feature",
      "properties": {
        "@id": "node/1805336245",
        "amenity": "fuel"
      },
      "geometry": {
        "type": "Point",
        "coordinates": [
          -7.9261445,
          12.6683574
        ]
      },
      "id": "node/1805336245"
    },
    {
      "type": "Feature",
      "properties": {
        "@id": "node/1805336254",
        "amenity": "fuel",
        "name": "songho"
      },
      "geometry": {
        "type": "Point",
        "coordinates": [
          -7.9623175,
          12.675948
        ]
      },
      "id": "node/1805336254"
    },
    {
      "type": "Feature",
      "properties": {
        "@id": "node/1829778673",
        "amenity": "fuel",
        "name": "Station Service Ben & Co."
      },
      "geometry": {
        "type": "Point",
        "coordinates": [
          -7.9667479,
          12.6573655
        ]
      },
      "id": "node/1829778673"
    },
    {
      "type": "Feature",
      "properties": {
        "@id": "node/1879067600",
        "amenity": "fuel",
        "brand": "Total"
      },
      "geometry": {
        "type": "Point",
        "coordinates": [
          -7.9847482,
          12.6198408
        ]
      },
      "id": "node/1879067600"
    },
    {
      "type": "Feature",
      "properties": {
        "@id": "node/2272437465",
        "amenity": "fuel",
        "brand": "Shell",
        "brand:es": "Shell",
        "brand:wikidata": "Q110716465",
        "name": "Shell",
        "name:es": "Shell"
      },
      "geometry": {
        "type": "Point",
        "coordinates": [
          -7.9778555,
          12.6152544
        ]
      },
      "id": "node/2272437465"
    },
    {
      "type": "Feature",
      "properties": {
        "@id": "node/2272445933",
        "amenity": "fuel",
        "brand": "Total"
      },
      "geometry": {
        "type": "Point",
        "coordinates": [
          -7.9799172,
          12.616652
        ]
      },
      "id": "node/2272445933"
    },
    {
      "type": "Feature",
      "properties": {
        "@id": "node/2979834837",
        "addr:city": "Bamako",
        "addr:housenumber": "Magnambougou Projet",
        "addr:street": "414",
        "amenity": "fuel",
        "name": "SMC"
      },
      "geometry": {
        "type": "Point",
        "coordinates": [
          -7.9585692,
          12.6091755
        ]
      },
      "id": "node/2979834837"
    },
    {
      "type": "Feature",
      "properties": {
        "@id": "node/2979834838",
        "addr:city": "Bamako",
        "addr:housenumber": "Magnambougou Projet",
        "addr:street": "Wèrèda",
        "amenity": "fuel",
        "brand": "Shell",
        "name": "Shell Sogoniko"
      },
      "geometry": {
        "type": "Point",
        "coordinates": [
          -7.9602751,
          12.6073746
        ]
      },
      "id": "node/2979834838"
    },
    {
      "type": "Feature",
      "properties": {
        "@id": "node/3039833352",
        "amenity": "fuel",
        "brand": "Total",
        "name": "Total Niamakoro",
        "operator": "Total"
      },
      "geometry": {
        "type": "Point",
        "coordinates": [
          -7.9725375,
          12.5998546
        ]
      },
      "id": "node/3039833352"
    },
    {
      "type": "Feature",
      "properties": {
        "@id": "node/3199244306",
        "amenity": "fuel"
      },
      "geometry": {
        "type": "Point",
        "coordinates": [
          -8.0068442,
          12.6712471
        ]
      },
      "id": "node/3199244306"
    },
    {
      "type": "Feature",
      "properties": {
        "@id": "node/3237901090",
        "amenity": "fuel",
        "brand": "Toiture",
        "fuel:GTL_diesel": "yes",
        "fuel:HGV_diesel": "yes",
        "fuel:biodiesel": "yes",
        "fuel:diesel": "yes",
        "fuel:octane_92": "yes",
        "name": "SMC Faso Kanu",
        "opening_hours": "24/7",
        "shop": "yes"
      },
      "geometry": {
        "type": "Point",
        "coordinates": [
          -7.9729272,
          12.6105554
        ]
      },
      "id": "node/3237901090"
    },
    {
      "type": "Feature",
      "properties": {
        "@id": "node/3240947035",
        "amenity": "fuel",
        "brand": "Mobil",
        "name": "Station Oil Lybiya"
      },
      "geometry": {
        "type": "Point",
        "coordinates": [
          -7.9404355,
          12.5714719
        ]
      },
      "id": "node/3240947035"
    },
    {
      "type": "Feature",
      "properties": {
        "@id": "node/3244219366",
        "amenity": "fuel",
        "name": "Viva"
      },
      "geometry": {
        "type": "Point",
        "coordinates": [
          -7.9552155,
          12.6213014
        ]
      },
      "id": "node/3244219366"
    },
    {
      "type": "Feature",
      "properties": {
        "@id": "node/3246880074",
        "amenity": "fuel",
        "name": "Titi Oil"
      },
      "geometry": {
        "type": "Point",
        "coordinates": [
          -7.9903194,
          12.6188173
        ]
      },
      "id": "node/3246880074"
    },
    {
      "type": "Feature",
      "properties": {
        "@id": "node/3463637258",
        "amenity": "fuel",
        "brand": "Station Total",
        "name": "Station Total",
        "opening_hours": "24/7",
        "operator": "Total Service",
        "shop": "yes"
      },
      "geometry": {
        "type": "Point",
        "coordinates": [
          -8.0248869,
          12.6244515
        ]
      },
      "id": "node/3463637258"
    },
    {
      "type": "Feature",
      "properties": {
        "@id": "node/3542610718",
        "amenity": "fuel",
        "brand": "Station SMC"
      },
      "geometry": {
        "type": "Point",
        "coordinates": [
          -7.9611489,
          12.608246
        ]
      },
      "id": "node/3542610718"
    },
    {
      "type": "Feature",
      "properties": {
        "@id": "node/3592246957",
        "amenity": "fuel",
        "brand": "Oryx",
        "fuel:diesel": "yes",
        "shop": "yes",
        "source:brand": "https://www.openstreetmap.org/note/1456832"
      },
      "geometry": {
        "type": "Point",
        "coordinates": [
          -8.0445252,
          12.6135745
        ]
      },
      "id": "node/3592246957"
    },
    {
      "type": "Feature",
      "properties": {
        "@id": "node/3592246958",
        "amenity": "fuel",
        "brand": "Independent",
        "fuel:diesel": "yes",
        "name": "Soleil",
        "shop": "yes"
      },
      "geometry": {
        "type": "Point",
        "coordinates": [
          -8.0448272,
          12.6128605
        ]
      },
      "id": "node/3592246958"
    },
    {
      "type": "Feature",
      "properties": {
        "@id": "node/3592271223",
        "amenity": "fuel",
        "brand": "Independent",
        "name": "SOMAYAF",
        "operator": "SOMAYAF",
        "source": "survey"
      },
      "geometry": {
        "type": "Point",
        "coordinates": [
          -8.0417408,
          12.6141393
        ]
      },
      "id": "node/3592271223"
    },
    {
      "type": "Feature",
      "properties": {
        "@id": "node/3592326168",
        "amenity": "fuel",
        "brand": "Independent",
        "fuel:diesel": "yes",
        "operator": "Dia Négoce",
        "shop": "yes",
        "source:operator": "survey"
      },
      "geometry": {
        "type": "Point",
        "coordinates": [
          -8.041126,
          12.6145621
        ]
      },
      "id": "node/3592326168"
    },
    {
      "type": "Feature",
      "properties": {
        "@id": "node/3592326172",
        "amenity": "fuel",
        "brand": "Independent",
        "name": "Station SGS",
        "source": "survey"
      },
      "geometry": {
        "type": "Point",
        "coordinates": [
          -8.0406587,
          12.6147761
        ]
      },
      "id": "node/3592326172"
    },
    {
      "type": "Feature",
      "properties": {
        "@id": "node/3683928897",
        "amenity": "fuel",
        "brand": "Independent",
        "fuel:diesel": "yes",
        "name": "Soyat",
        "opening_hours": "24/7",
        "shop": "no"
      },
      "geometry": {
        "type": "Point",
        "coordinates": [
          -8.0690226,
          12.5846531
        ]
      },
      "id": "node/3683928897"
    },
    {
      "type": "Feature",
      "properties": {
        "@id": "node/3794578304",
        "amenity": "fuel",
        "brand": "TotalEnergies",
        "brand:wikidata": "Q154037",
        "name": "TotalEnergies",
        "wheelchair": "yes"
      },
      "geometry": {
        "type": "Point",
        "coordinates": [
          -8.035464,
          12.6277943
        ]
      },
      "id": "node/3794578304"
    },
    {
      "type": "Feature",
      "properties": {
        "@id": "node/3811325880",
        "amenity": "fuel",
        "brand": "Statoil",
        "fuel:HGV_diesel": "yes",
        "fuel:diesel": "yes",
        "name": "station Dia negos",
        "opening_hours": "24/7",
        "operator:type": "private",
        "shop": "convenience",
        "wheelchair": "yes"
      },
      "geometry": {
        "type": "Point",
        "coordinates": [
          -7.9217118,
          12.6304315
        ]
      },
      "id": "node/3811325880"
    },
    {
      "type": "Feature",
      "properties": {
        "@id": "node/3814543675",
        "amenity": "fuel",
        "brand": "Station Cheick SARL"
      },
      "geometry": {
        "type": "Point",
        "coordinates": [
          -8.0729657,
          12.5772362
        ]
      },
      "id": "node/3814543675"
    },
    {
      "type": "Feature",
      "properties": {
        "@id": "node/3814543678",
        "amenity": "fuel",
        "brand": "Station Star",
        "source": "survey"
      },
      "geometry": {
        "type": "Point",
        "coordinates": [
          -8.0564379,
          12.5975098
        ]
      },
      "id": "node/3814543678"
    },
    {
      "type": "Feature",
      "properties": {
        "@id": "node/3814543680",
        "amenity": "fuel",
        "brand": "Shell",
        "name": "Station Shell",
        "name:en": "Shell",
        "source": "survey"
      },
      "geometry": {
        "type": "Point",
        "coordinates": [
          -8.0469572,
          12.6076821
        ]
      },
      "id": "node/3814543680"
    },
    {
      "type": "Feature",
      "properties": {
        "@id": "node/4117502169",
        "amenity": "fuel",
        "brand": "masa trading sarl"
      },
      "geometry": {
        "type": "Point",
        "coordinates": [
          -7.9937973,
          12.5536665
        ]
      },
      "id": "node/4117502169"
    },
    {
      "type": "Feature",
      "properties": {
        "@id": "node/4141126157",
        "amenity": "fuel",
        "brand": "Station Petro Cheik Sarl"
      },
      "geometry": {
        "type": "Point",
        "coordinates": [
          -7.9922416,
          12.5538832
        ]
      },
      "id": "node/4141126157"
    },
    {
      "type": "Feature",
      "properties": {
        "@id": "node/4230980416",
        "amenity": "fuel",
        "name": "Station Somayaf SA"
      },
      "geometry": {
        "type": "Point",
        "coordinates": [
          -7.9252141,
          12.6062154
        ]
      },
      "id": "node/4230980416"
    },
    {
      "type": "Feature",
      "properties": {
        "@id": "node/4231033616",
        "amenity": "fuel",
        "name": "Station Petro Kondo",
        "source": "survey"
      },
      "geometry": {
        "type": "Point",
        "coordinates": [
          -7.9116851,
          12.6097869
        ]
      },
      "id": "node/4231033616"
    },
    {
      "type": "Feature",
      "properties": {
        "@id": "node/4262939569",
        "amenity": "fuel",
        "brand": "Fuel Oil Distribution Holdings",
        "name": "ODH",
        "name:en": "ODH",
        "name:fr": "ODH",
        "source": "survey"
      },
      "geometry": {
        "type": "Point",
        "coordinates": [
          -7.9314858,
          12.5157352
        ]
      },
      "id": "node/4262939569"
    },
    {
      "type": "Feature",
      "properties": {
        "@id": "node/4262939579",
        "amenity": "fuel",
        "brand": "Golfinger",
        "name": "Shell Senou",
        "name:en": "Shell Senou",
        "name:fr": "Shell Senou",
        "source": "survey"
      },
      "geometry": {
        "type": "Point",
        "coordinates": [
          -7.9318341,
          12.5244232
        ]
      },
      "id": "node/4262939579"
    },
    {
      "type": "Feature",
      "properties": {
        "@id": "node/4281254098",
        "amenity": "fuel",
        "name": "Station Nientao"
      },
      "geometry": {
        "type": "Point",
        "coordinates": [
          -8.0133991,
          12.5985735
        ]
      },
      "id": "node/4281254098"
    },
    {
      "type": "Feature",
      "properties": {
        "@id": "node/4281254102",
        "amenity": "fuel",
        "name": "SHELL de kalaban coura"
      },
      "geometry": {
        "type": "Point",
        "coordinates": [
          -7.9918001,
          12.5905373
        ]
      },
      "id": "node/4281254102"
    },
    {
      "type": "Feature",
      "properties": {
        "@id": "node/4281257391",
        "amenity": "fuel",
        "brand": "Total",
        "brand:ar": "طوطال",
        "brand:fr": "Total",
        "brand:wikidata": "Q154037",
        "brand:wikipedia": "fr:Total (entreprise)",
        "brand:wikipedia:ar": "طوطال",
        "internet_access": "wlan",
        "name": "Total",
        "name:ar": "طوطال",
        "name:fr": "Total"
      },
      "geometry": {
        "type": "Point",
        "coordinates": [
          -8.0120007,
          12.6008071
        ]
      },
      "id": "node/4281257391"
    },
    {
      "type": "Feature",
      "properties": {
        "@id": "node/4281265698",
        "amenity": "fuel",
        "name": "yara"
      },
      "geometry": {
        "type": "Point",
        "coordinates": [
          -7.9946578,
          12.5820802
        ]
      },
      "id": "node/4281265698"
    },
    {
      "type": "Feature",
      "properties": {
        "@id": "node/4281286790",
        "amenity": "fuel",
        "name": "Dia-Negoce"
      },
      "geometry": {
        "type": "Point",
        "coordinates": [
          -8.0182549,
          12.6260131
        ]
      },
      "id": "node/4281286790"
    },
    {
      "type": "Feature",
      "properties": {
        "@id": "node/4281287392",
        "amenity": "fuel"
      },
      "geometry": {
        "type": "Point",
        "coordinates": [
          -7.997611,
          12.6139382
        ]
      },
      "id": "node/4281287392"
    },
    {
      "type": "Feature",
      "properties": {
        "@id": "node/4281287396",
        "amenity": "fuel",
        "name": "Station Total de kalaban coura"
      },
      "geometry": {
        "type": "Point",
        "coordinates": [
          -7.9883711,
          12.5795823
        ]
      },
      "id": "node/4281287396"
    },
    {
      "type": "Feature",
      "properties": {
        "@id": "node/4281287892",
        "amenity": "fuel",
        "brand": "Total",
        "brand:wikidata": "Q154037",
        "brand:wikipedia": "fr:Total (entreprise)",
        "name": "Total"
      },
      "geometry": {
        "type": "Point",
        "coordinates": [
          -8.0002384,
          12.6447512
        ]
      },
      "id": "node/4281287892"
    },
    {
      "type": "Feature",
      "properties": {
        "@id": "node/4382448859",
        "amenity": "fuel",
        "name": "Station Total"
      },
      "geometry": {
        "type": "Point",
        "coordinates": [
          -8.0435622,
          12.6287693
        ]
      },
      "id": "node/4382448859"
    },
    {
      "type": "Feature",
      "properties": {
        "@id": "node/4386152290",
        "amenity": "fuel",
        "brand": "Oilibya",
        "brand:ar": "أويليبيا",
        "brand:fr": "Oilibya",
        "brand:wikidata": "Q7081491",
        "name": "Oilibya",
        "name:ar": "أويليبيا",
        "name:fr": "Oilibya"
      },
      "geometry": {
        "type": "Point",
        "coordinates": [
          -7.9890768,
          12.6413728
        ]
      },
      "id": "node/4386152290"
    },
    {
      "type": "Feature",
      "properties": {
        "@id": "node/4389923390",
        "amenity": "fuel",
        "brand": "Orix"
      },
      "geometry": {
        "type": "Point",
        "coordinates": [
          -7.958939,
          12.5968657
        ]
      },
      "id": "node/4389923390"
    },
    {
      "type": "Feature",
      "properties": {
        "@id": "node/4391792943",
        "amenity": "fuel",
        "name": "Oryx"
      },
      "geometry": {
        "type": "Point",
        "coordinates": [
          -8.0404,
          12.631
        ]
      },
      "id": "node/4391792943"
    },
    {
      "type": "Feature",
      "properties": {
        "@id": "node/4397143592",
        "amenity": "fuel",
        "name": "Station Total de kalaban coura"
      },
      "geometry": {
        "type": "Point",
        "coordinates": [
          -7.9884998,
          12.5793858
        ]
      },
      "id": "node/4397143592"
    },
    {
      "type": "Feature",
      "properties": {
        "@id": "node/4414030911",
        "amenity": "fuel",
        "brand": "Total",
        "name": "Total de Banankabougou",
        "name:fr": "Total de Banankabougou"
      },
      "geometry": {
        "type": "Point",
        "coordinates": [
          -7.9377103,
          12.5975009
        ]
      },
      "id": "node/4414030911"
    },
    {
      "type": "Feature",
      "properties": {
        "@id": "node/4433150764",
        "amenity": "fuel",
        "brand": "Shell",
        "brand:fr": "Shell",
        "brand:wikidata": "Q110716465",
        "name": "Shell",
        "name:fr": "Shell",
        "payment:coins": "yes",
        "payment:dkv": "yes",
        "payment:notes": "yes"
      },
      "geometry": {
        "type": "Point",
        "coordinates": [
          -8.0224772,
          12.641828
        ]
      },
      "id": "node/4433150764"
    },
    {
      "type": "Feature",
      "properties": {
        "@id": "node/4556846094",
        "amenity": "fuel",
        "name": "Global Médical Compagnie",
        "name:fr": "Global Médical Compagnie",
        "shop": "electronics"
      },
      "geometry": {
        "type": "Point",
        "coordinates": [
          -7.9316944,
          12.6621079
        ]
      },
      "id": "node/4556846094"
    },
    {
      "type": "Feature",
      "properties": {
        "@id": "node/4568797898",
        "amenity": "fuel",
        "name": "Shell",
        "name:fr": "Shell"
      },
      "geometry": {
        "type": "Point",
        "coordinates": [
          -8.0154623,
          12.5964183
        ]
      },
      "id": "node/4568797898"
    },
    {
      "type": "Feature",
      "properties": {
        "@id": "node/4610775436",
        "amenity": "fuel",
        "brand": "Station Ndoure Trans Service",
        "name": "N'Dour Service",
        "name:fr": "N'Dour Service"
      },
      "geometry": {
        "type": "Point",
        "coordinates": [
          -8.049863,
          12.6035342
        ]
      },
      "id": "node/4610775436"
    },
    {
      "type": "Feature",
      "properties": {
        "@id": "node/4664234477",
        "amenity": "fuel",
        "brand": "Station Soyatt"
      },
      "geometry": {
        "type": "Point",
        "coordinates": [
          -7.9992233,
          12.6143896
        ]
      },
      "id": "node/4664234477"
    },
    {
      "type": "Feature",
      "properties": {
        "@id": "node/4694383712",
        "amenity": "fuel",
        "brand": "Total",
        "shop": "yes"
      },
      "geometry": {
        "type": "Point",
        "coordinates": [
          -8.0232137,
          12.5842094
        ]
      },
      "id": "node/4694383712"
    },
    {
      "type": "Feature",
      "properties": {
        "@id": "node/4721180648",
        "amenity": "fuel",
        "brand": "Star"
      },
      "geometry": {
        "type": "Point",
        "coordinates": [
          -7.9853898,
          12.6201372
        ]
      },
      "id": "node/4721180648"
    },
    {
      "type": "Feature",
      "properties": {
        "@id": "node/4740518626",
        "amenity": "fuel",
        "name": "Station d'essence 3PS"
      },
      "geometry": {
        "type": "Point",
        "coordinates": [
          -8.0231863,
          12.6550198
        ]
      },
      "id": "node/4740518626"
    },
    {
      "type": "Feature",
      "properties": {
        "@id": "node/4740518627",
        "amenity": "fuel",
        "name": "Station d'essence Etoile"
      },
      "geometry": {
        "type": "Point",
        "coordinates": [
          -8.0234094,
          12.6551009
        ]
      },
      "id": "node/4740518627"
    },
    {
      "type": "Feature",
      "properties": {
        "@id": "node/4742858851",
        "amenity": "fuel"
      },
      "geometry": {
        "type": "Point",
        "coordinates": [
          -7.9783753,
          12.6654555
        ]
      },
      "id": "node/4742858851"
    },
    {
      "type": "Feature",
      "properties": {
        "@id": "node/4742951923",
        "amenity": "fuel",
        "name": "Baraka",
        "name:fr": "Baraka"
      },
      "geometry": {
        "type": "Point",
        "coordinates": [
          -7.9641161,
          12.5737653
        ]
      },
      "id": "node/4742951923"
    },
    {
      "type": "Feature",
      "properties": {
        "@id": "node/4757538724",
        "amenity": "fuel",
        "brand": "Total",
        "name": "Total Faladie"
      },
      "geometry": {
        "type": "Point",
        "coordinates": [
          -7.9426466,
          12.5863457
        ]
      },
      "id": "node/4757538724"
    },
    {
      "type": "Feature",
      "properties": {
        "@id": "node/4919551124",
        "addr:street": "Avenue de l'O.U.A.",
        "amenity": "fuel",
        "name": "Station Yara",
        "name:fr": "Station Yara",
        "opening_hours": "24/7"
      },
      "geometry": {
        "type": "Point",
        "coordinates": [
          -7.9696312,
          12.6042363
        ]
      },
      "id": "node/4919551124"
    },
    {
      "type": "Feature",
      "properties": {
        "@id": "node/4919551126",
        "addr:street": "Avenue de l'O.U.A.",
        "amenity": "fuel",
        "brand": "Oryx",
        "opening_hours": "24/7"
      },
      "geometry": {
        "type": "Point",
        "coordinates": [
          -7.9440916,
          12.5855997
        ]
      },
      "id": "node/4919551126"
    },
    {
      "type": "Feature",
      "properties": {
        "@id": "node/4919553021",
        "addr:street": "Rue 331",
        "amenity": "fuel",
        "name": "Total",
        "name:en": "Total Service",
        "name:fr": "Total",
        "opening_hours": "24/7"
      },
      "geometry": {
        "type": "Point",
        "coordinates": [
          -8.0275213,
          12.6236329
        ]
      },
      "id": "node/4919553021"
    },
    {
      "type": "Feature",
      "properties": {
        "@id": "node/4929590744",
        "amenity": "fuel",
        "name": "Station SOS"
      },
      "geometry": {
        "type": "Point",
        "coordinates": [
          -7.9495801,
          12.6056567
        ]
      },
      "id": "node/4929590744"
    },
    {
      "type": "Feature",
      "properties": {
        "@id": "node/4937734596",
        "amenity": "fuel",
        "brand": "Orix",
        "name": "STATION ORYX",
        "shop": "travel_agency"
      },
      "geometry": {
        "type": "Point",
        "coordinates": [
          -7.9559981,
          12.5759021
        ]
      },
      "id": "node/4937734596"
    },
    {
      "type": "Feature",
      "properties": {
        "@id": "node/4937736297",
        "amenity": "fuel",
        "name": "Station Baraka Petroleum"
      },
      "geometry": {
        "type": "Point",
        "coordinates": [
          -7.9642172,
          12.5737906
        ]
      },
      "id": "node/4937736297"
    },
    {
      "type": "Feature",
      "properties": {
        "@id": "node/4957683344",
        "amenity": "fuel",
        "brand": "Oryx"
      },
      "geometry": {
        "type": "Point",
        "coordinates": [
          -7.9982411,
          12.5829995
        ]
      },
      "id": "node/4957683344"
    },
    {
      "type": "Feature",
      "properties": {
        "@id": "node/4963943724",
        "amenity": "fuel",
        "brand": "Total",
        "brand:wikidata": "Q154037",
        "brand:wikipedia": "fr:Total (entreprise)",
        "name": "Total",
        "name:fr": "Total"
      },
      "geometry": {
        "type": "Point",
        "coordinates": [
          -7.963434,
          12.5930717
        ]
      },
      "id": "node/4963943724"
    },
    {
      "type": "Feature",
      "properties": {
        "@id": "node/4987135368",
        "amenity": "fuel",
        "name": "Station Gyf"
      },
      "geometry": {
        "type": "Point",
        "coordinates": [
          -8.005497,
          12.5730443
        ]
      },
      "id": "node/4987135368"
    },
    {
      "type": "Feature",
      "properties": {
        "@id": "node/4987140730",
        "amenity": "fuel",
        "brand": "Baraka Petroleum",
        "name": "STATION BARAKA PETROLEUM"
      },
      "geometry": {
        "type": "Point",
        "coordinates": [
          -8.0025353,
          12.5732538
        ]
      },
      "id": "node/4987140730"
    },
    {
      "type": "Feature",
      "properties": {
        "@id": "node/5009311323",
        "amenity": "fuel",
        "name": "Station EDS",
        "name:fr": "Station EDS"
      },
      "geometry": {
        "type": "Point",
        "coordinates": [
          -7.9376226,
          12.6647769
        ]
      },
      "id": "node/5009311323"
    },
    {
      "type": "Feature",
      "properties": {
        "@id": "node/5009311621",
        "amenity": "fuel",
        "name": "Station service",
        "name:fr": "Station service"
      },
      "geometry": {
        "type": "Point",
        "coordinates": [
          -7.9680724,
          12.6825349
        ]
      },
      "id": "node/5009311621"
    },
    {
      "type": "Feature",
      "properties": {
        "@id": "node/5070441241",
        "amenity": "fuel",
        "brand": "Station Mande"
      },
      "geometry": {
        "type": "Point",
        "coordinates": [
          -7.9831539,
          12.571337
        ]
      },
      "id": "node/5070441241"
    },
    {
      "type": "Feature",
      "properties": {
        "@id": "node/5070441242",
        "amenity": "fuel",
        "brand": "Station Layidou"
      },
      "geometry": {
        "type": "Point",
        "coordinates": [
          -7.9827194,
          12.5686379
        ]
      },
      "id": "node/5070441242"
    },
    {
      "type": "Feature",
      "properties": {
        "@id": "node/5070441269",
        "amenity": "fuel",
        "brand": "Station G Y F"
      },
      "geometry": {
        "type": "Point",
        "coordinates": [
          -7.9954009,
          12.5690921
        ]
      },
      "id": "node/5070441269"
    },
    {
      "type": "Feature",
      "properties": {
        "@id": "node/5070455888",
        "amenity": "fuel",
        "brand": "Station Pedro Nyentao"
      },
      "geometry": {
        "type": "Point",
        "coordinates": [
          -7.9423454,
          12.5876316
        ]
      },
      "id": "node/5070455888"
    },
    {
      "type": "Feature",
      "properties": {
        "@id": "node/5079238839",
        "amenity": "fuel",
        "brand": "Station G P S"
      },
      "geometry": {
        "type": "Point",
        "coordinates": [
          -7.9350901,
          12.5874549
        ]
      },
      "id": "node/5079238839"
    },
    {
      "type": "Feature",
      "properties": {
        "@id": "node/5113369723",
        "amenity": "fuel",
        "name": "Station Yara Service"
      },
      "geometry": {
        "type": "Point",
        "coordinates": [
          -8.0355094,
          12.6615901
        ]
      },
      "id": "node/5113369723"
    },
    {
      "type": "Feature",
      "properties": {
        "@id": "node/5113375321",
        "amenity": "fuel",
        "name": "Binkadinaka"
      },
      "geometry": {
        "type": "Point",
        "coordinates": [
          -8.0321966,
          12.6592874
        ]
      },
      "id": "node/5113375321"
    },
    {
      "type": "Feature",
      "properties": {
        "@id": "node/5113375326",
        "amenity": "fuel",
        "name": "Station petro Nientoa"
      },
      "geometry": {
        "type": "Point",
        "coordinates": [
          -7.9217048,
          12.6284218
        ]
      },
      "id": "node/5113375326"
    },
    {
      "type": "Feature",
      "properties": {
        "@id": "node/5113954833",
        "amenity": "fuel",
        "brand": "Station Kasse et Frere"
      },
      "geometry": {
        "type": "Point",
        "coordinates": [
          -7.950382,
          12.5766768
        ]
      },
      "id": "node/5113954833"
    },
    {
      "type": "Feature",
      "properties": {
        "@id": "node/5113980766",
        "amenity": "fuel",
        "brand": "Oilibya",
        "brand:ar": "أويليبيا",
        "brand:fr": "Oilibya",
        "brand:wikidata": "Q7081491",
        "name": "Oilibya",
        "name:ar": "أويليبيا",
        "name:fr": "Oilibya"
      },
      "geometry": {
        "type": "Point",
        "coordinates": [
          -7.9547138,
          12.6510719
        ]
      },
      "id": "node/5113980766"
    },
    {
      "type": "Feature",
      "properties": {
        "@id": "node/5123057480",
        "amenity": "fuel",
        "brand": "Station Songho"
      },
      "geometry": {
        "type": "Point",
        "coordinates": [
          -7.9788879,
          12.6538519
        ]
      },
      "id": "node/5123057480"
    },
    {
      "type": "Feature",
      "properties": {
        "@id": "node/5123151902",
        "amenity": "fuel",
        "brand": "Station Sodies"
      },
      "geometry": {
        "type": "Point",
        "coordinates": [
          -7.9355454,
          12.6652038
        ]
      },
      "id": "node/5123151902"
    },
    {
      "type": "Feature",
      "properties": {
        "@id": "node/5123273942",
        "amenity": "fuel",
        "brand": "Station SOS"
      },
      "geometry": {
        "type": "Point",
        "coordinates": [
          -8.0335151,
          12.6600712
        ]
      },
      "id": "node/5123273942"
    },
    {
      "type": "Feature",
      "properties": {
        "@id": "node/5123273943",
        "amenity": "fuel",
        "brand": "Dia Negoce"
      },
      "geometry": {
        "type": "Point",
        "coordinates": [
          -8.031832,
          12.6588105
        ]
      },
      "id": "node/5123273943"
    },
    {
      "type": "Feature",
      "properties": {
        "@id": "node/5128272191",
        "amenity": "fuel",
        "brand": "Total"
      },
      "geometry": {
        "type": "Point",
        "coordinates": [
          -8.0129522,
          12.6536941
        ]
      },
      "id": "node/5128272191"
    },
    {
      "type": "Feature",
      "properties": {
        "@id": "node/5128272197",
        "amenity": "fuel",
        "brand": "Station Oryx"
      },
      "geometry": {
        "type": "Point",
        "coordinates": [
          -8.020858,
          12.6539158
        ]
      },
      "id": "node/5128272197"
    },
    {
      "type": "Feature",
      "properties": {
        "@id": "node/5128298835",
        "amenity": "fuel",
        "brand": "Station Petro Final",
        "source": "Esri"
      },
      "geometry": {
        "type": "Point",
        "coordinates": [
          -8.0380427,
          12.6377608
        ]
      },
      "id": "node/5128298835"
    },
    {
      "type": "Feature",
      "properties": {
        "@id": "node/5144203439",
        "amenity": "fuel"
      },
      "geometry": {
        "type": "Point",
        "coordinates": [
          -7.9981971,
          12.6479765
        ]
      },
      "id": "node/5144203439"
    },
    {
      "type": "Feature",
      "properties": {
        "@id": "node/5148214671",
        "amenity": "fuel"
      },
      "geometry": {
        "type": "Point",
        "coordinates": [
          -8.0424843,
          12.6174403
        ]
      },
      "id": "node/5148214671"
    },
    {
      "type": "Feature",
      "properties": {
        "@id": "node/5214297090",
        "amenity": "fuel",
        "name": "René Alphonse station"
      },
      "geometry": {
        "type": "Point",
        "coordinates": [
          -7.9214821,
          12.5747532
        ]
      },
      "id": "node/5214297090"
    },
    {
      "type": "Feature",
      "properties": {
        "@id": "node/5214301085",
        "aeroway": "fuel",
        "amenity": "fuel",
        "name": "Petro nientao"
      },
      "geometry": {
        "type": "Point",
        "coordinates": [
          -7.9424408,
          12.5874512
        ]
      },
      "id": "node/5214301085"
    },
    {
      "type": "Feature",
      "properties": {
        "@id": "node/5222485822",
        "amenity": "fuel",
        "name": "Station Shell",
        "name:fr": "Station Shell"
      },
      "geometry": {
        "type": "Point",
        "coordinates": [
          -7.986916,
          12.5786088
        ]
      },
      "id": "node/5222485822"
    },
    {
      "type": "Feature",
      "properties": {
        "@id": "node/5223073826",
        "amenity": "fuel",
        "name": "Station Kondo"
      },
      "geometry": {
        "type": "Point",
        "coordinates": [
          -7.9105286,
          12.6100772
        ]
      },
      "id": "node/5223073826"
    },
    {
      "type": "Feature",
      "properties": {
        "@id": "node/5235724825",
        "amenity": "fuel",
        "name": "Station Total"
      },
      "geometry": {
        "type": "Point",
        "coordinates": [
          -7.991683,
          12.589885
        ]
      },
      "id": "node/5235724825"
    },
    {
      "type": "Feature",
      "properties": {
        "@id": "node/5236749206",
        "amenity": "fuel",
        "name": "Station Essence SS"
      },
      "geometry": {
        "type": "Point",
        "coordinates": [
          -7.988555,
          12.5888083
        ]
      },
      "id": "node/5236749206"
    },
    {
      "type": "Feature",
      "properties": {
        "@id": "node/5236749208",
        "amenity": "fuel"
      },
      "geometry": {
        "type": "Point",
        "coordinates": [
          -7.9960211,
          12.582541
        ]
      },
      "id": "node/5236749208"
    },
    {
      "type": "Feature",
      "properties": {
        "@id": "node/5236749209",
        "amenity": "fuel",
        "name": "ORYX Energies"
      },
      "geometry": {
        "type": "Point",
        "coordinates": [
          -7.9979628,
          12.583144
        ]
      },
      "id": "node/5236749209"
    },
    {
      "type": "Feature",
      "properties": {
        "@id": "node/5277654226",
        "amenity": "fuel",
        "name": "SOTRAKA SA"
      },
      "geometry": {
        "type": "Point",
        "coordinates": [
          -7.98738,
          12.5788966
        ]
      },
      "id": "node/5277654226"
    },
    {
      "type": "Feature",
      "properties": {
        "@id": "node/5277654228",
        "amenity": "fuel",
        "name": "MS"
      },
      "geometry": {
        "type": "Point",
        "coordinates": [
          -7.9877548,
          12.5779261
        ]
      },
      "id": "node/5277654228"
    },
    {
      "type": "Feature",
      "properties": {
        "@id": "node/5277682829",
        "amenity": "fuel",
        "name": "M'BAYE OIL"
      },
      "geometry": {
        "type": "Point",
        "coordinates": [
          -7.988304,
          12.5774074
        ]
      },
      "id": "node/5277682829"
    },
    {
      "type": "Feature",
      "properties": {
        "@id": "node/5304936222",
        "amenity": "fuel",
        "brand": "Station Oryx"
      },
      "geometry": {
        "type": "Point",
        "coordinates": [
          -8.0230907,
          12.5833071
        ]
      },
      "id": "node/5304936222"
    },
    {
      "type": "Feature",
      "properties": {
        "@id": "node/5304947666",
        "amenity": "fuel",
        "brand": "Station GYF",
        "name": "OLA ÉNERGIE",
        "office": "government"
      },
      "geometry": {
        "type": "Point",
        "coordinates": [
          -8.0057569,
          12.5732572
        ]
      },
      "id": "node/5304947666"
    },
    {
      "type": "Feature",
      "properties": {
        "@id": "node/5304980015",
        "amenity": "fuel"
      },
      "geometry": {
        "type": "Point",
        "coordinates": [
          -7.948764,
          12.5892507
        ]
      },
      "id": "node/5304980015"
    },
    {
      "type": "Feature",
      "properties": {
        "@id": "node/5305020737",
        "amenity": "fuel",
        "brand": "Station Oryx"
      },
      "geometry": {
        "type": "Point",
        "coordinates": [
          -8.0528551,
          12.600593
        ]
      },
      "id": "node/5305020737"
    },
    {
      "type": "Feature",
      "properties": {
        "@id": "node/5307498121",
        "amenity": "fuel",
        "brand": "Shell",
        "name": "Station Shell",
        "operator": "Shell"
      },
      "geometry": {
        "type": "Point",
        "coordinates": [
          -8.0180696,
          12.6350652
        ]
      },
      "id": "node/5307498121"
    },
    {
      "type": "Feature",
      "properties": {
        "@id": "node/5307498122",
        "amenity": "fuel",
        "name": "Station Totale",
        "operator": "Totale"
      },
      "geometry": {
        "type": "Point",
        "coordinates": [
          -8.0181849,
          12.6349501
        ]
      },
      "id": "node/5307498122"
    },
    {
      "type": "Feature",
      "properties": {
        "@id": "node/5333101237",
        "amenity": "fuel",
        "brand": "Station Diango"
      },
      "geometry": {
        "type": "Point",
        "coordinates": [
          -8.0055101,
          12.67994
        ]
      },
      "id": "node/5333101237"
    },
    {
      "type": "Feature",
      "properties": {
        "@id": "node/5333233056",
        "amenity": "fuel",
        "brand": "Station Mallé"
      },
      "geometry": {
        "type": "Point",
        "coordinates": [
          -7.949456,
          12.5770767
        ]
      },
      "id": "node/5333233056"
    },
    {
      "type": "Feature",
      "properties": {
        "@id": "node/5333233057",
        "amenity": "fuel",
        "brand": "Station Djebougou"
      },
      "geometry": {
        "type": "Point",
        "coordinates": [
          -7.9489973,
          12.5774694
        ]
      },
      "id": "node/5333233057"
    },
    {
      "type": "Feature",
      "properties": {
        "@id": "node/5333233058",
        "amenity": "fuel"
      },
      "geometry": {
        "type": "Point",
        "coordinates": [
          -7.9482315,
          12.5782966
        ]
      },
      "id": "node/5333233058"
    },
    {
      "type": "Feature",
      "properties": {
        "@id": "node/5333233066",
        "amenity": "fuel",
        "brand": "Station Pedro Birgo"
      },
      "geometry": {
        "type": "Point",
        "coordinates": [
          -7.9422288,
          12.5887376
        ]
      },
      "id": "node/5333233066"
    },
    {
      "type": "Feature",
      "properties": {
        "@id": "node/5357038823",
        "amenity": "fuel",
        "name": "Pompe service Cheval"
      },
      "geometry": {
        "type": "Point",
        "coordinates": [
          -7.9424219,
          12.5892173
        ]
      },
      "id": "node/5357038823"
    },
    {
      "type": "Feature",
      "properties": {
        "@id": "node/5357038826",
        "amenity": "fuel"
      },
      "geometry": {
        "type": "Point",
        "coordinates": [
          -7.9423012,
          12.5896924
        ]
      },
      "id": "node/5357038826"
    },
    {
      "type": "Feature",
      "properties": {
        "@id": "node/5357079436",
        "amenity": "fuel",
        "brand": "Station Bakara Pétroleum"
      },
      "geometry": {
        "type": "Point",
        "coordinates": [
          -7.9491596,
          12.5776029
        ]
      },
      "id": "node/5357079436"
    },
    {
      "type": "Feature",
      "properties": {
        "@id": "node/5357144342",
        "amenity": "fuel",
        "name": "Station 30m"
      },
      "geometry": {
        "type": "Point",
        "coordinates": [
          -7.9636985,
          12.5742573
        ]
      },
      "id": "node/5357144342"
    },
    {
      "type": "Feature",
      "properties": {
        "@id": "node/5369212629",
        "amenity": "fuel",
        "name": "Oryx"
      },
      "geometry": {
        "type": "Point",
        "coordinates": [
          -8.0146346,
          12.6440521
        ]
      },
      "id": "node/5369212629"
    },
    {
      "type": "Feature",
      "properties": {
        "@id": "node/5421416624",
        "amenity": "fuel",
        "name": "Petro Salam"
      },
      "geometry": {
        "type": "Point",
        "coordinates": [
          -7.9950291,
          12.5485867
        ]
      },
      "id": "node/5421416624"
    },
    {
      "type": "Feature",
      "properties": {
        "@id": "node/5421468621",
        "amenity": "fuel",
        "name": "Station TOTAL Sogolon",
        "name:en": "Station TOTAL"
      },
      "geometry": {
        "type": "Point",
        "coordinates": [
          -7.9917371,
          12.5894038
        ]
      },
      "id": "node/5421468621"
    },
    {
      "type": "Feature",
      "properties": {
        "@id": "node/5570402269",
        "amenity": "fuel",
        "brand": "Total",
        "name": "Total Daoudabougou"
      },
      "geometry": {
        "type": "Point",
        "coordinates": [
          -7.9803991,
          12.5986741
        ]
      },
      "id": "node/5570402269"
    },
    {
      "type": "Feature",
      "properties": {
        "@id": "node/5580456992",
        "amenity": "fuel",
        "brand": "Total"
      },
      "geometry": {
        "type": "Point",
        "coordinates": [
          -8.0259645,
          12.6213222
        ]
      },
      "id": "node/5580456992"
    },
    {
      "type": "Feature",
      "properties": {
        "@id": "node/5585992517",
        "amenity": "fuel",
        "compressed_air": "yes",
        "name": "Station SAD"
      },
      "geometry": {
        "type": "Point",
        "coordinates": [
          -8.0023371,
          12.559228
        ]
      },
      "id": "node/5585992517"
    },
    {
      "type": "Feature",
      "properties": {
        "@id": "node/5637788550",
        "amenity": "fuel",
        "brand": "Station Singo Sy"
      },
      "geometry": {
        "type": "Point",
        "coordinates": [
          -8.073,
          12.5793575
        ]
      },
      "id": "node/5637788550"
    },
    {
      "type": "Feature",
      "properties": {
        "@id": "node/5637788552",
        "amenity": "fuel",
        "brand": "Station Cheick Sall"
      },
      "geometry": {
        "type": "Point",
        "coordinates": [
          -8.072959,
          12.5770263
        ]
      },
      "id": "node/5637788552"
    },
    {
      "type": "Feature",
      "properties": {
        "@id": "node/5644868922",
        "amenity": "fuel",
        "name": "ORiX"
      },
      "geometry": {
        "type": "Point",
        "coordinates": [
          -7.972675,
          12.6058966
        ]
      },
      "id": "node/5644868922"
    },
    {
      "type": "Feature",
      "properties": {
        "@id": "node/5691089725",
        "amenity": "fuel",
        "brand": "Shell"
      },
      "geometry": {
        "type": "Point",
        "coordinates": [
          -8.0626883,
          12.5905269
        ]
      },
      "id": "node/5691089725"
    },
    {
      "type": "Feature",
      "properties": {
        "@id": "node/5702459087",
        "amenity": "fuel",
        "name": "Station Pétro Momo"
      },
      "geometry": {
        "type": "Point",
        "coordinates": [
          -8.0020222,
          12.5624628
        ]
      },
      "id": "node/5702459087"
    },
    {
      "type": "Feature",
      "properties": {
        "@id": "node/5735259791",
        "amenity": "fuel",
        "brand": "Gamby Petrulum"
      },
      "geometry": {
        "type": "Point",
        "coordinates": [
          -8.0205642,
          12.6539955
        ]
      },
      "id": "node/5735259791"
    },
    {
      "type": "Feature",
      "properties": {
        "@id": "node/5747099893",
        "amenity": "fuel"
      },
      "geometry": {
        "type": "Point",
        "coordinates": [
          -7.9429241,
          12.583097
        ]
      },
      "id": "node/5747099893"
    },
    {
      "type": "Feature",
      "properties": {
        "@id": "node/5747939937",
        "amenity": "fuel"
      },
      "geometry": {
        "type": "Point",
        "coordinates": [
          -7.9200281,
          12.621834
        ]
      },
      "id": "node/5747939937"
    },
    {
      "type": "Feature",
      "properties": {
        "@id": "node/5751786848",
        "amenity": "fuel",
        "brand": "Total",
        "fuel:1_50": "yes",
        "fuel:diesel": "yes",
        "name": "Total Fadiga",
        "opening_hours": "24/7",
        "shop": "no"
      },
      "geometry": {
        "type": "Point",
        "coordinates": [
          -7.9502097,
          12.6938387
        ]
      },
      "id": "node/5751786848"
    },
    {
      "type": "Feature",
      "properties": {
        "@id": "node/5753660078",
        "amenity": "fuel",
        "brand": "Station Kasse",
        "name": "Station Kasse"
      },
      "geometry": {
        "type": "Point",
        "coordinates": [
          -7.9591428,
          12.5852979
        ]
      },
      "id": "node/5753660078"
    },
    {
      "type": "Feature",
      "properties": {
        "@id": "node/5753660079",
        "amenity": "fuel",
        "brand": "Station Kasse",
        "name": "Station Kasse"
      },
      "geometry": {
        "type": "Point",
        "coordinates": [
          -7.9591589,
          12.5854969
        ]
      },
      "id": "node/5753660079"
    },
    {
      "type": "Feature",
      "properties": {
        "@id": "node/5753660080",
        "amenity": "fuel",
        "brand": "Station Sobaco",
        "name": "Station Sobaco"
      },
      "geometry": {
        "type": "Point",
        "coordinates": [
          -7.960107,
          12.585023
        ]
      },
      "id": "node/5753660080"
    },
    {
      "type": "Feature",
      "properties": {
        "@id": "node/5753775708",
        "amenity": "fuel",
        "brand": "Station Helix"
      },
      "geometry": {
        "type": "Point",
        "coordinates": [
          -7.936675,
          12.6536769
        ]
      },
      "id": "node/5753775708"
    },
    {
      "type": "Feature",
      "properties": {
        "@id": "node/5758210211",
        "amenity": "fuel",
        "name": "Sodies"
      },
      "geometry": {
        "type": "Point",
        "coordinates": [
          -7.9438334,
          12.652245
        ]
      },
      "id": "node/5758210211"
    },
    {
      "type": "Feature",
      "properties": {
        "@id": "node/5758447121",
        "amenity": "fuel",
        "name": "Station Halimatou Services"
      },
      "geometry": {
        "type": "Point",
        "coordinates": [
          -8.0245255,
          12.6533451
        ]
      },
      "id": "node/5758447121"
    },
    {
      "type": "Feature",
      "properties": {
        "@id": "node/5758624261",
        "amenity": "fuel",
        "brand": "Total",
        "shop": "yes"
      },
      "geometry": {
        "type": "Point",
        "coordinates": [
          -7.9864637,
          12.6178545
        ]
      },
      "id": "node/5758624261"
    },
    {
      "type": "Feature",
      "properties": {
        "@id": "node/5758671333",
        "amenity": "fuel",
        "brand": "Baraka Petrolum"
      },
      "geometry": {
        "type": "Point",
        "coordinates": [
          -7.9373902,
          12.5781265
        ]
      },
      "id": "node/5758671333"
    },
    {
      "type": "Feature",
      "properties": {
        "@id": "node/5793011118",
        "amenity": "fuel",
        "name": "Sodies"
      },
      "geometry": {
        "type": "Point",
        "coordinates": [
          -8.0449085,
          12.6134738
        ]
      },
      "id": "node/5793011118"
    },
    {
      "type": "Feature",
      "properties": {
        "@id": "node/5846661987",
        "amenity": "fuel",
        "brand": "Total",
        "brand:fr": "Total",
        "brand:wikidata": "Q154037",
        "brand:wikipedia": "fr:Total (entreprise)",
        "name": "Total",
        "name:fr": "Total"
      },
      "geometry": {
        "type": "Point",
        "coordinates": [
          -7.9841094,
          12.5715934
        ]
      },
      "id": "node/5846661987"
    },
    {
      "type": "Feature",
      "properties": {
        "@id": "node/5889449889",
        "amenity": "fuel",
        "brand": "Oilibya",
        "brand:ar": "أويليبيا",
        "brand:fr": "Oilibya",
        "brand:wikidata": "Q7081491",
        "name": "Oilibya",
        "name:ar": "أويليبيا",
        "name:fr": "Oilibya"
      },
      "geometry": {
        "type": "Point",
        "coordinates": [
          -8.016709,
          12.6431854
        ]
      },
      "id": "node/5889449889"
    },
    {
      "type": "Feature",
      "properties": {
        "@id": "node/5905084485",
        "addr:street": "Avenue de l'O.U.A.",
        "amenity": "fuel",
        "internet_access": "wlan",
        "name": "SOCIÉTÉ YATASSAYE ET COMPAGNIE FALADIÈ",
        "opening_hours": "Mo-Su 08:00-22:00"
      },
      "geometry": {
        "type": "Point",
        "coordinates": [
          -7.9486926,
          12.5892663
        ]
      },
      "id": "node/5905084485"
    },
    {
      "type": "Feature",
      "properties": {
        "@id": "node/5914832967",
        "amenity": "fuel",
        "brand": "Station Traore Service"
      },
      "geometry": {
        "type": "Point",
        "coordinates": [
          -7.9220612,
          12.6306349
        ]
      },
      "id": "node/5914832967"
    },
    {
      "type": "Feature",
      "properties": {
        "@id": "node/5914832970",
        "amenity": "fuel",
        "brand": "Station SOMAYAFF"
      },
      "geometry": {
        "type": "Point",
        "coordinates": [
          -7.9208636,
          12.623216
        ]
      },
      "id": "node/5914832970"
    },
    {
      "type": "Feature",
      "properties": {
        "@id": "node/5973570052",
        "amenity": "fuel"
      },
      "geometry": {
        "type": "Point",
        "coordinates": [
          -8.0164844,
          12.6524184
        ]
      },
      "id": "node/5973570052"
    },
    {
      "type": "Feature",
      "properties": {
        "@id": "node/5973596140",
        "amenity": "fuel"
      },
      "geometry": {
        "type": "Point",
        "coordinates": [
          -8.0338416,
          12.6209186
        ]
      },
      "id": "node/5973596140"
    },
    {
      "type": "Feature",
      "properties": {
        "@id": "node/6016410096",
        "addr:street": "Rue 21",
        "amenity": "fuel",
        "brand": "Total",
        "name": "Medinacoura",
        "opening_hours": "24/7"
      },
      "geometry": {
        "type": "Point",
        "coordinates": [
          -7.9875393,
          12.6520251
        ]
      },
      "id": "node/6016410096"
    },
    {
      "type": "Feature",
      "properties": {
        "@id": "node/6016410102",
        "amenity": "fuel",
        "brand": "Station Yara"
      },
      "geometry": {
        "type": "Point",
        "coordinates": [
          -7.975562,
          12.6553606
        ]
      },
      "id": "node/6016410102"
    },
    {
      "type": "Feature",
      "properties": {
        "@id": "node/6016410106",
        "amenity": "fuel",
        "brand": "Shell",
        "fuel:octane_100": "yes"
      },
      "geometry": {
        "type": "Point",
        "coordinates": [
          -7.9600219,
          12.6604043
        ]
      },
      "id": "node/6016410106"
    },
    {
      "type": "Feature",
      "properties": {
        "@id": "node/6016410111",
        "amenity": "fuel",
        "brand": "Somayaf"
      },
      "geometry": {
        "type": "Point",
        "coordinates": [
          -7.9430468,
          12.6640962
        ]
      },
      "id": "node/6016410111"
    },
    {
      "type": "Feature",
      "properties": {
        "@id": "node/6016410113",
        "amenity": "fuel",
        "brand": "Total"
      },
      "geometry": {
        "type": "Point",
        "coordinates": [
          -7.9446287,
          12.6634105
        ]
      },
      "id": "node/6016410113"
    },
    {
      "type": "Feature",
      "properties": {
        "@id": "node/6016410116",
        "amenity": "fuel",
        "brand": "Station Djebougou"
      },
      "geometry": {
        "type": "Point",
        "coordinates": [
          -7.9374182,
          12.6648204
        ]
      },
      "id": "node/6016410116"
    },
    {
      "type": "Feature",
      "properties": {
        "@id": "node/6022731890",
        "amenity": "fuel",
        "brand": "Essence détaillant"
      },
      "geometry": {
        "type": "Point",
        "coordinates": [
          -7.9324293,
          12.6536608
        ]
      },
      "id": "node/6022731890"
    },
    {
      "type": "Feature",
      "properties": {
        "@id": "node/6022731892",
        "amenity": "fuel",
        "brand": "Station Sygim"
      },
      "geometry": {
        "type": "Point",
        "coordinates": [
          -7.9403029,
          12.6529097
        ]
      },
      "id": "node/6022731892"
    },
    {
      "type": "Feature",
      "properties": {
        "@id": "node/6022731897",
        "amenity": "fuel",
        "brand": "Station Somayaff"
      },
      "geometry": {
        "type": "Point",
        "coordinates": [
          -7.9508159,
          12.6515528
        ]
      },
      "id": "node/6022731897"
    },
    {
      "type": "Feature",
      "properties": {
        "@id": "node/6022750311",
        "amenity": "fuel",
        "brand": "Essence détaillant"
      },
      "geometry": {
        "type": "Point",
        "coordinates": [
          -7.9333989,
          12.6349311
        ]
      },
      "id": "node/6022750311"
    },
    {
      "type": "Feature",
      "properties": {
        "@id": "node/6033152402",
        "amenity": "fuel",
        "brand": "Station Bassoum Services"
      },
      "geometry": {
        "type": "Point",
        "coordinates": [
          -7.9499743,
          12.5768156
        ]
      },
      "id": "node/6033152402"
    },
    {
      "type": "Feature",
      "properties": {
        "@id": "node/6033152403",
        "amenity": "fuel",
        "brand": "Station Totale"
      },
      "geometry": {
        "type": "Point",
        "coordinates": [
          -7.9486862,
          12.5777246
        ]
      },
      "id": "node/6033152403"
    },
    {
      "type": "Feature",
      "properties": {
        "@id": "node/6041311951",
        "amenity": "fuel",
        "brand": "Oilibya",
        "brand:ar": "أويليبيا",
        "brand:fr": "Oilibya",
        "brand:wikidata": "Q7081491",
        "name": "Oilibya",
        "name:ar": "أويليبيا",
        "name:fr": "Oilibya"
      },
      "geometry": {
        "type": "Point",
        "coordinates": [
          -7.9886583,
          12.6415883
        ]
      },
      "id": "node/6041311951"
    },
    {
      "type": "Feature",
      "properties": {
        "@id": "node/6041857832",
        "amenity": "fuel",
        "brand": "Total",
        "name": "Station Total du Fleuve"
      },
      "geometry": {
        "type": "Point",
        "coordinates": [
          -7.9836421,
          12.620187
        ]
      },
      "id": "node/6041857832"
    },
    {
      "type": "Feature",
      "properties": {
        "@id": "node/6043457885",
        "amenity": "fuel",
        "brand": "Total",
        "name": "TOTAL 2eme Pont"
      },
      "geometry": {
        "type": "Point",
        "coordinates": [
          -7.9938341,
          12.6115486
        ]
      },
      "id": "node/6043457885"
    },
    {
      "type": "Feature",
      "properties": {
        "@id": "node/6114284020",
        "addr:city": "Bamako",
        "addr:quarter": "Daoudabougou",
        "addr:street": "Face au goudron",
        "addr:suburb": "Commune V",
        "amenity": "fuel",
        "brand": "Station Badenya",
        "building:material": "cement_block",
        "sector": "Secteur I"
      },
      "geometry": {
        "type": "Point",
        "coordinates": [
          -7.9937634,
          12.602352
        ]
      },
      "id": "node/6114284020"
    },
    {
      "type": "Feature",
      "properties": {
        "@id": "node/6114284022",
        "amenity": "fuel",
        "brand": "AbaOil"
      },
      "geometry": {
        "type": "Point",
        "coordinates": [
          -7.9931331,
          12.5996442
        ]
      },
      "id": "node/6114284022"
    },
    {
      "type": "Feature",
      "properties": {
        "@id": "node/6114284023",
        "amenity": "fuel",
        "brand": "Oilibya",
        "brand:ar": "أويليبيا",
        "brand:fr": "Oilibya",
        "brand:wikidata": "Q7081491",
        "name": "Oilibya",
        "name:ar": "أويليبيا",
        "name:fr": "Oilibya"
      },
      "geometry": {
        "type": "Point",
        "coordinates": [
          -7.9922935,
          12.5914483
        ]
      },
      "id": "node/6114284023"
    },
    {
      "type": "Feature",
      "properties": {
        "@id": "node/6114284025",
        "amenity": "fuel",
        "brand": "SMAP"
      },
      "geometry": {
        "type": "Point",
        "coordinates": [
          -7.9915398,
          12.586328
        ]
      },
      "id": "node/6114284025"
    },
    {
      "type": "Feature",
      "properties": {
        "@id": "node/6114326348",
        "amenity": "fuel",
        "brand": "Shell",
        "brand:wikidata": "Q110716465",
        "name": "Shell"
      },
      "geometry": {
        "type": "Point",
        "coordinates": [
          -7.9956128,
          12.572286
        ]
      },
      "id": "node/6114326348"
    },
    {
      "type": "Feature",
      "properties": {
        "@id": "node/6187169279",
        "amenity": "fuel",
        "brand": "Station Kondo"
      },
      "geometry": {
        "type": "Point",
        "coordinates": [
          -7.9836159,
          12.5736378
        ]
      },
      "id": "node/6187169279"
    },
    {
      "type": "Feature",
      "properties": {
        "@id": "node/6196787312",
        "amenity": "fuel",
        "brand": "Station SKF"
      },
      "geometry": {
        "type": "Point",
        "coordinates": [
          -7.9881314,
          12.5888162
        ]
      },
      "id": "node/6196787312"
    },
    {
      "type": "Feature",
      "properties": {
        "@id": "node/6196787315",
        "amenity": "fuel",
        "brand": "Dia Negoce"
      },
      "geometry": {
        "type": "Point",
        "coordinates": [
          -7.9855719,
          12.5905059
        ]
      },
      "id": "node/6196787315"
    },
    {
      "type": "Feature",
      "properties": {
        "@id": "node/6196787318",
        "amenity": "fuel",
        "brand": "Dalawal"
      },
      "geometry": {
        "type": "Point",
        "coordinates": [
          -7.9810437,
          12.5969473
        ]
      },
      "id": "node/6196787318"
    },
    {
      "type": "Feature",
      "properties": {
        "@id": "node/6196787329",
        "amenity": "fuel",
        "brand": "SOMAPP"
      },
      "geometry": {
        "type": "Point",
        "coordinates": [
          -7.9771015,
          12.6082324
        ]
      },
      "id": "node/6196787329"
    },
    {
      "type": "Feature",
      "properties": {
        "@id": "node/6199915854",
        "amenity": "fuel",
        "brand": "Yara Oil"
      },
      "geometry": {
        "type": "Point",
        "coordinates": [
          -8.0220319,
          12.5869235
        ]
      },
      "id": "node/6199915854"
    },
    {
      "type": "Feature",
      "properties": {
        "@id": "node/6217127156",
        "amenity": "fuel",
        "name": "Station AGG"
      },
      "geometry": {
        "type": "Point",
        "coordinates": [
          -7.9831433,
          12.652985
        ]
      },
      "id": "node/6217127156"
    },
    {
      "type": "Feature",
      "properties": {
        "@id": "node/6249769053",
        "amenity": "fuel",
        "brand": "Ben&Co"
      },
      "geometry": {
        "type": "Point",
        "coordinates": [
          -8.0125037,
          12.6506055
        ]
      },
      "id": "node/6249769053"
    },
    {
      "type": "Feature",
      "properties": {
        "@id": "node/6255601959",
        "amenity": "fuel",
        "name": "Total 30m"
      },
      "geometry": {
        "type": "Point",
        "coordinates": [
          -7.985409,
          12.5715545
        ]
      },
      "id": "node/6255601959"
    },
    {
      "type": "Feature",
      "properties": {
        "@id": "node/6258318126",
        "amenity": "fuel"
      },
      "geometry": {
        "type": "Point",
        "coordinates": [
          -8.0139986,
          12.6512323
        ]
      },
      "id": "node/6258318126"
    },
    {
      "type": "Feature",
      "properties": {
        "@id": "node/6258479390",
        "amenity": "fuel"
      },
      "geometry": {
        "type": "Point",
        "coordinates": [
          -8.0166674,
          12.6525836
        ]
      },
      "id": "node/6258479390"
    },
    {
      "type": "Feature",
      "properties": {
        "@id": "node/6264693483",
        "amenity": "fuel"
      },
      "geometry": {
        "type": "Point",
        "coordinates": [
          -7.9550856,
          12.6512413
        ]
      },
      "id": "node/6264693483"
    },
    {
      "type": "Feature",
      "properties": {
        "@id": "node/6266796479",
        "amenity": "fuel",
        "brand": "Oryx"
      },
      "geometry": {
        "type": "Point",
        "coordinates": [
          -7.9559123,
          12.6508218
        ]
      },
      "id": "node/6266796479"
    },
    {
      "type": "Feature",
      "properties": {
        "@id": "node/6281815348",
        "amenity": "fuel"
      },
      "geometry": {
        "type": "Point",
        "coordinates": [
          -7.9238851,
          12.6699424
        ]
      },
      "id": "node/6281815348"
    },
    {
      "type": "Feature",
      "properties": {
        "@id": "node/6290688111",
        "amenity": "fuel",
        "name": "Shel"
      },
      "geometry": {
        "type": "Point",
        "coordinates": [
          -7.9202106,
          12.6220888
        ]
      },
      "id": "node/6290688111"
    },
    {
      "type": "Feature",
      "properties": {
        "@id": "node/6290691164",
        "amenity": "fuel",
        "name": "Petro MoMo"
      },
      "geometry": {
        "type": "Point",
        "coordinates": [
          -7.915785,
          12.6110517
        ]
      },
      "id": "node/6290691164"
    },
    {
      "type": "Feature",
      "properties": {
        "@id": "node/6294647112",
        "amenity": "fuel",
        "brand": "Station Totale"
      },
      "geometry": {
        "type": "Point",
        "coordinates": [
          -8.0338973,
          12.6267939
        ]
      },
      "id": "node/6294647112"
    },
    {
      "type": "Feature",
      "properties": {
        "@id": "node/6314653622",
        "amenity": "fuel"
      },
      "geometry": {
        "type": "Point",
        "coordinates": [
          -8.0193651,
          12.6563197
        ]
      },
      "id": "node/6314653622"
    },
    {
      "type": "Feature",
      "properties": {
        "@id": "node/6316997661",
        "amenity": "fuel",
        "brand": "Sation Petro"
      },
      "geometry": {
        "type": "Point",
        "coordinates": [
          -8.0281654,
          12.6505419
        ]
      },
      "id": "node/6316997661"
    },
    {
      "type": "Feature",
      "properties": {
        "@id": "node/6332155263",
        "amenity": "fuel",
        "brand": "Station Mali Sadio"
      },
      "geometry": {
        "type": "Point",
        "coordinates": [
          -8.0031203,
          12.6514932
        ]
      },
      "id": "node/6332155263"
    },
    {
      "type": "Feature",
      "properties": {
        "@id": "node/6371243056",
        "amenity": "fuel",
        "name": "Yara Oil"
      },
      "geometry": {
        "type": "Point",
        "coordinates": [
          -8.0189867,
          12.6380233
        ]
      },
      "id": "node/6371243056"
    },
    {
      "type": "Feature",
      "properties": {
        "@id": "node/6439880255",
        "amenity": "fuel"
      },
      "geometry": {
        "type": "Point",
        "coordinates": [
          -8.0729999,
          12.5742939
        ]
      },
      "id": "node/6439880255"
    },
    {
      "type": "Feature",
      "properties": {
        "@id": "node/6456693567",
        "amenity": "fuel",
        "brand": "Shell"
      },
      "geometry": {
        "type": "Point",
        "coordinates": [
          -8.0384463,
          12.6158506
        ]
      },
      "id": "node/6456693567"
    },
    {
      "type": "Feature",
      "properties": {
        "@id": "node/6726593272",
        "amenity": "fuel",
        "brand": "Somayaf"
      },
      "geometry": {
        "type": "Point",
        "coordinates": [
          -8.053586,
          12.6003156
        ]
      },
      "id": "node/6726593272"
    },
    {
      "type": "Feature",
      "properties": {
        "@id": "node/7040480727",
        "amenity": "fuel"
      },
      "geometry": {
        "type": "Point",
        "coordinates": [
          -7.9727885,
          12.594617
        ]
      },
      "id": "node/7040480727"
    },
    {
      "type": "Feature",
      "properties": {
        "@id": "node/7317233606",
        "addr:street": "Avenue de l'OUA",
        "amenity": "fuel",
        "name": "Station Oilibya"
      },
      "geometry": {
        "type": "Point",
        "coordinates": [
          -7.9704116,
          12.6047411
        ]
      },
      "id": "node/7317233606"
    },
    {
      "type": "Feature",
      "properties": {
        "@id": "node/7499636749",
        "amenity": "fuel",
        "fuel:HGV_diesel": "yes",
        "fuel:adblue": "yes",
        "fuel:diesel": "yes",
        "fuel:lpg": "yes",
        "name": "Station Total Sébénicoro",
        "operator": "Total Service",
        "shop": "yes",
        "wheelchair": "yes"
      },
      "geometry": {
        "type": "Point",
        "coordinates": [
          -8.0631173,
          12.5900897
        ]
      },
      "id": "node/7499636749"
    },
    {
      "type": "Feature",
      "properties": {
        "@id": "node/7501005966",
        "amenity": "fuel",
        "name": "Bps",
        "shop": "convenience"
      },
      "geometry": {
        "type": "Point",
        "coordinates": [
          -8.0238135,
          12.6552258
        ]
      },
      "id": "node/7501005966"
    },
    {
      "type": "Feature",
      "properties": {
        "@id": "node/7501038346",
        "amenity": "fuel",
        "name": "Massa Trading sarl"
      },
      "geometry": {
        "type": "Point",
        "coordinates": [
          -8.0291712,
          12.6573266
        ]
      },
      "id": "node/7501038346"
    },
    {
      "type": "Feature",
      "properties": {
        "@id": "node/7501235314",
        "amenity": "fuel",
        "brand": "Station MDOURE",
        "fuel:diesel": "yes"
      },
      "geometry": {
        "type": "Point",
        "coordinates": [
          -8.0500509,
          12.6033821
        ]
      },
      "id": "node/7501235314"
    },
    {
      "type": "Feature",
      "properties": {
        "@id": "node/7501388302",
        "amenity": "fuel",
        "brand": "Station DIANECOSE"
      },
      "geometry": {
        "type": "Point",
        "coordinates": [
          -8.0309871,
          12.6191093
        ]
      },
      "id": "node/7501388302"
    },
    {
      "type": "Feature",
      "properties": {
        "@id": "node/7691253885",
        "amenity": "fuel",
        "brand": "Total",
        "brand:wikidata": "Q154037",
        "name": "STATION TOTAL"
      },
      "geometry": {
        "type": "Point",
        "coordinates": [
          -7.9947573,
          12.5725079
        ]
      },
      "id": "node/7691253885"
    },
    {
      "type": "Feature",
      "properties": {
        "@id": "node/7745691107",
        "amenity": "fuel"
      },
      "geometry": {
        "type": "Point",
        "coordinates": [
          -7.9795598,
          12.5582275
        ]
      },
      "id": "node/7745691107"
    },
    {
      "type": "Feature",
      "properties": {
        "@id": "node/7982385675",
        "amenity": "fuel",
        "brand": "Total",
        "brand:wikidata": "Q154037",
        "name": "Station TOTAL"
      },
      "geometry": {
        "type": "Point",
        "coordinates": [
          -8.0007713,
          12.5535935
        ]
      },
      "id": "node/7982385675"
    },
    {
      "type": "Feature",
      "properties": {
        "@id": "node/8041664298",
        "amenity": "fuel"
      },
      "geometry": {
        "type": "Point",
        "coordinates": [
          -7.9549733,
          12.6248571
        ]
      },
      "id": "node/8041664298"
    },
    {
      "type": "Feature",
      "properties": {
        "@id": "node/8109720203",
        "amenity": "fuel",
        "brand": "Banan",
        "name": "Banan Oil"
      },
      "geometry": {
        "type": "Point",
        "coordinates": [
          -7.9327807,
          12.5313153
        ]
      },
      "id": "node/8109720203"
    },
    {
      "type": "Feature",
      "properties": {
        "@id": "node/8235134676",
        "amenity": "fuel"
      },
      "geometry": {
        "type": "Point",
        "coordinates": [
          -7.9821247,
          12.5663915
        ]
      },
      "id": "node/8235134676"
    },
    {
      "type": "Feature",
      "properties": {
        "@id": "node/8235174911",
        "amenity": "fuel"
      },
      "geometry": {
        "type": "Point",
        "coordinates": [
          -7.9862647,
          12.5779868
        ]
      },
      "id": "node/8235174911"
    },
    {
      "type": "Feature",
      "properties": {
        "@id": "node/8499944702",
        "amenity": "fuel",
        "name": "Station Shell"
      },
      "geometry": {
        "type": "Point",
        "coordinates": [
          -7.943138,
          12.5860479
        ]
      },
      "id": "node/8499944702"
    },
    {
      "type": "Feature",
      "properties": {
        "@id": "node/8500013274",
        "amenity": "fuel",
        "name": "Station Yara"
      },
      "geometry": {
        "type": "Point",
        "coordinates": [
          -7.9425372,
          12.5887219
        ]
      },
      "id": "node/8500013274"
    },
    {
      "type": "Feature",
      "properties": {
        "@id": "node/8500016154",
        "amenity": "fuel"
      },
      "geometry": {
        "type": "Point",
        "coordinates": [
          -7.9423065,
          12.5896015
        ]
      },
      "id": "node/8500016154"
    },
    {
      "type": "Feature",
      "properties": {
        "@id": "node/8500018540",
        "amenity": "fuel"
      },
      "geometry": {
        "type": "Point",
        "coordinates": [
          -7.9423991,
          12.5893155
        ]
      },
      "id": "node/8500018540"
    },
    {
      "type": "Feature",
      "properties": {
        "@id": "node/8626893713",
        "amenity": "fuel",
        "name": "Station Yara"
      },
      "geometry": {
        "type": "Point",
        "coordinates": [
          -7.9920763,
          12.5892219
        ]
      },
      "id": "node/8626893713"
    },
    {
      "type": "Feature",
      "properties": {
        "@id": "node/8626898020",
        "amenity": "fuel",
        "name": "Station Essence SAD"
      },
      "geometry": {
        "type": "Point",
        "coordinates": [
          -7.9900935,
          12.5602859
        ]
      },
      "id": "node/8626898020"
    },
    {
      "type": "Feature",
      "properties": {
        "@id": "node/9131416615",
        "amenity": "fuel",
        "name": "Petro Golf"
      },
      "geometry": {
        "type": "Point",
        "coordinates": [
          -7.9679214,
          12.5881626
        ]
      },
      "id": "node/9131416615"
    },
    {
      "type": "Feature",
      "properties": {
        "@id": "node/9909438517",
        "amenity": "fuel",
        "name": "station Batraka"
      },
      "geometry": {
        "type": "Point",
        "coordinates": [
          -7.9335939,
          12.5940498
        ]
      },
      "id": "node/9909438517"
    },
    {
      "type": "Feature",
      "properties": {
        "@id": "node/13071156582",
        "amenity": "fuel",
        "brand": "Shell",
        "brand:wikidata": "Q110716465",
        "name": "Shell"
      },
      "geometry": {
        "type": "Point",
        "coordinates": [
          -8.0177778,
          12.6373304
        ]
      },
      "id": "node/13071156582"
    },
    {
      "type": "Feature",
      "properties": {
        "@id": "node/13071198790",
        "amenity": "fuel",
        "brand": "TotalEnergies",
        "brand:wikidata": "Q154037",
        "name": "TotalEnergies"
      },
      "geometry": {
        "type": "Point",
        "coordinates": [
          -8.0440354,
          12.6130725
        ]
      },
      "id": "node/13071198790"
    },
    {
      "type": "Feature",
      "properties": {
        "@id": "node/13071215604",
        "amenity": "fuel",
        "brand": "Shell",
        "brand:wikidata": "Q110716465",
        "name": "Shell"
      },
      "geometry": {
        "type": "Point",
        "coordinates": [
          -8.0147657,
          12.6279442
        ]
      },
      "id": "node/13071215604"
    }
  ]
}